*******************************************************************************
Ephemeris / WWW_USER Mon Mar 26 20:29:59 2018 Pasadena, USA      / Horizons    
*******************************************************************************
Target body name: Oberon (704)                    {source: ura111}
Center body name: Uranus Barycenter (7)           {source: DE431mx}
Center-site name: BODY CENTER
*******************************************************************************
Start time      : A.D. 2000-Jan-01 00:00:00.0000 TDB
Stop  time      : A.D. 2005-Jan-01 00:00:00.0000 TDB
Step-size       : 7200 minutes
*******************************************************************************
Center geodetic : 0.00000000,0.00000000,0.0000000 {E-lon(deg),Lat(deg),Alt(km)}
Center cylindric: 0.00000000,0.00000000,0.0000000 {E-lon(deg),Dxy(km),Dz(km)}
Center radii    : (undefined)                                                  
Output units    : AU-D                                                         
Output type     : GEOMETRIC cartesian states
Output format   : 2 (position and velocity)
Reference frame : ICRF/J2000.0                                                 
Coordinate systm: Ecliptic and Mean Equinox of Reference Epoch                 
*******************************************************************************
JDTDB
   X     Y     Z
   VX    VY    VZ
*******************************************************************************
$$SOE
2451544.500000000 = A.D. 2000-Jan-01 00:00:00.0000 TDB 
  -3.481312929881337E-03  5.174707258351689E-04 -1.680896506741378E-03
  -7.270228409920252E-04  3.875403159420470E-04  1.622821968378933E-03
2451549.500000000 = A.D. 2000-Jan-06 00:00:00.0000 TDB 
   1.272087397152379E-03  2.450366587720494E-04  3.680293650908476E-03
   1.676286756463605E-03 -4.418138522801556E-04 -5.512418992675197E-04
2451554.500000000 = A.D. 2000-Jan-11 00:00:00.0000 TDB 
   1.709251620615604E-03 -8.516822642706647E-04 -3.395426823369961E-03
  -1.591708035879080E-03  2.238854342041123E-04 -8.583047302869244E-04
2451559.500000000 = A.D. 2000-Jan-16 00:00:00.0000 TDB 
  -3.650323068228081E-03  9.368650941762515E-04  1.022063686363130E-03
   5.195036421314156E-04  1.331987715670282E-04  1.736940276403347E-03
2451564.500000000 = A.D. 2000-Jan-21 00:00:00.0000 TDB 
   3.317669068273406E-03 -4.368755977850539E-04  1.999316036695720E-03
   8.741801807291653E-04 -4.083676251274799E-04 -1.544325927745857E-03
2451569.500000000 = A.D. 2000-Jan-26 00:00:00.0000 TDB 
  -9.540794429384886E-04 -3.261139737471502E-04 -3.765452167284507E-03
  -1.724283235206123E-03  4.304121860468111E-04  3.971166257228516E-04
2451574.500000000 = A.D. 2000-Jan-31 00:00:00.0000 TDB 
  -2.025578325659532E-03  8.950113012173673E-04  3.216569232471384E-03
   1.507031002442102E-03 -1.856320822402671E-04  9.986705666081470E-04
2451579.500000000 = A.D. 2000-Feb-05 00:00:00.0000 TDB 
   3.726085075774303E-03 -9.040437299878958E-04 -6.741194426847893E-04
  -3.638018717535793E-04 -1.728573710846162E-04 -1.778363613171163E-03
2451584.500000000 = A.D. 2000-Feb-10 00:00:00.0000 TDB 
  -3.150789022173959E-03  3.610984083020264E-04 -2.278695197339643E-03
  -1.005639095308812E-03  4.240451524062100E-04  1.453539646977188E-03
2451589.500000000 = A.D. 2000-Feb-15 00:00:00.0000 TDB 
   5.926397264457708E-04  4.140575278567282E-04  3.832528883619579E-03
   1.757258448902629E-03 -4.139799979257549E-04 -2.305151358974140E-04
2451594.500000000 = A.D. 2000-Feb-20 00:00:00.0000 TDB 
   2.291992427286012E-03 -9.236926123386956E-04 -3.010769392095208E-03
  -1.421434099181568E-03  1.483372853887056E-04 -1.130875738440386E-03
2451599.500000000 = A.D. 2000-Feb-25 00:00:00.0000 TDB 
  -3.795356781824126E-03  8.695679850063946E-04  3.244302891095642E-04
   2.022701096253591E-04  2.099824284089317E-04  1.792941795867089E-03
2451604.500000000 = A.D. 2000-Mar-01 00:00:00.0000 TDB 
   2.923539294430946E-03 -2.723975260153793E-04  2.556788683541240E-03
   1.140495214006418E-03 -4.390840176093757E-04 -1.353015116872825E-03
2451609.500000000 = A.D. 2000-Mar-06 00:00:00.0000 TDB 
  -2.760578707464697E-04 -4.870266596083349E-04 -3.862542973783248E-03
  -1.773700918419935E-03  3.953449892846283E-04  7.369330265539964E-05
2451614.500000000 = A.D. 2000-Mar-11 00:00:00.0000 TDB 
  -2.580645081491370E-03  9.520922069583763E-04  2.768836841217319E-03
   1.311921726706865E-03 -1.069817939695286E-04  1.255070978509006E-03
2451619.500000000 = A.D. 2000-Mar-16 00:00:00.0000 TDB 
   3.805568750848120E-03 -8.230353364444967E-04  1.985141536300123E-05
  -4.244413622609659E-05 -2.465039863018794E-04 -1.805892174260276E-03
2451624.500000000 = A.D. 2000-Mar-21 00:00:00.0000 TDB 
  -2.704031499865312E-03  1.885425280388604E-04 -2.812564543650126E-03
  -1.254670305821462E-03  4.472798129736937E-04  1.235875178695936E-03
2451629.500000000 = A.D. 2000-Mar-26 00:00:00.0000 TDB 
  -9.132096734682275E-05  5.655532534262398E-04  3.853990356210073E-03
   1.780732804017124E-03 -3.729871550610859E-04  9.500694026391513E-05
2451634.500000000 = A.D. 2000-Mar-31 00:00:00.0000 TDB 
   2.807257158251639E-03 -9.672745182697351E-04 -2.528654612603137E-03
  -1.202373165693134E-03  6.768879829971638E-05 -1.364664023176969E-03
2451639.500000000 = A.D. 2000-Apr-05 00:00:00.0000 TDB 
  -3.807540761036109E-03  7.719948595484365E-04 -3.833847763473342E-04
  -1.218663328408518E-04  2.802589026263204E-04  1.792415802583455E-03
2451644.500000000 = A.D. 2000-Apr-10 00:00:00.0000 TDB 
   2.437893997454931E-03 -9.909147403220138E-05  3.036373314440108E-03
   1.368861799846150E-03 -4.547725104501718E-04 -1.113759150197093E-03
2451649.500000000 = A.D. 2000-Apr-15 00:00:00.0000 TDB 
   4.264672466360425E-04 -6.344705541265214E-04 -3.826986702058394E-03
  -1.766960287043287E-03  3.473291237020139E-04 -2.550914388544910E-04
2451654.500000000 = A.D. 2000-Apr-20 00:00:00.0000 TDB 
  -3.038399487230034E-03  9.766676856137007E-04  2.240703563004192E-03
   1.075818320484676E-03 -2.556063329818320E-05  1.468196799061523E-03
2451659.500000000 = A.D. 2000-Apr-25 00:00:00.0000 TDB 
   3.764782704568274E-03 -7.150559135881749E-04  7.199502862113885E-04
   2.804335397814007E-04 -3.117176977599739E-04 -1.771532730001044E-03
2451664.500000000 = A.D. 2000-Apr-30 00:00:00.0000 TDB 
  -2.165585602786162E-03  1.034749046218738E-05 -3.245696535837740E-03
  -1.464126665960481E-03  4.563158335061370E-04  9.786398474091900E-04
2451669.500000000 = A.D. 2000-May-05 00:00:00.0000 TDB 
  -7.756401688996091E-04  7.002496127493478E-04  3.756352384590758E-03
   1.742791008210990E-03 -3.188677542168252E-04  4.190467193037846E-04
2451674.500000000 = A.D. 2000-May-10 00:00:00.0000 TDB 
   3.232507233839617E-03 -9.774588170777766E-04 -1.948727242494751E-03
  -9.436767492082453E-04 -1.565757302833155E-05 -1.556718453242993E-03
2451679.500000000 = A.D. 2000-May-15 00:00:00.0000 TDB 
  -3.696403882527060E-03  6.518602963266711E-04 -1.061429984689063E-03
  -4.384701088780069E-04  3.405758004639710E-04  1.733068587084792E-03
2451684.500000000 = A.D. 2000-May-20 00:00:00.0000 TDB 
   1.869027427612997E-03  7.917981287310565E-05  3.423342134957853E-03
   1.550297531692425E-03 -4.549418202970010E-04 -8.368387891079102E-04
2451689.500000000 = A.D. 2000-May-25 00:00:00.0000 TDB 
   1.107445801728200E-03 -7.585530129268528E-04 -3.659451108338811E-03
  -1.703549208352584E-03  2.881908262450887E-04 -5.755371020022845E-04
2451694.500000000 = A.D. 2000-May-30 00:00:00.0000 TDB 
  -3.405281596442794E-03  9.712598514590222E-04  1.640152342737544E-03
   8.014478238223405E-04  5.716902210601111E-05  1.631881008212394E-03
2451699.500000000 = A.D. 2000-Jun-04 00:00:00.0000 TDB 
   3.589644570293451E-03 -5.802626976670249E-04  1.403450703161905E-03
   5.956197513304984E-04 -3.673546698931273E-04 -1.681298219031633E-03
2451704.500000000 = A.D. 2000-Jun-09 00:00:00.0000 TDB 
  -1.571781358518274E-03 -1.636527987292100E-04 -3.564287554586097E-03
  -1.622622651278931E-03  4.501603005712579E-04  6.921952348645331E-04
2451709.500000000 = A.D. 2000-Jun-14 00:00:00.0000 TDB 
  -1.442292788065976E-03  8.137764989140315E-04  3.536175953493703E-03
   1.646069051534045E-03 -2.540804627005392E-04  7.283356472299662E-04
2451714.500000000 = A.D. 2000-Jun-19 00:00:00.0000 TDB 
   3.541568443342497E-03 -9.540163143623833E-04 -1.309445704428924E-03
  -6.549820859678255E-04 -9.832752041567776E-05 -1.698045598049426E-03
2451719.500000000 = A.D. 2000-Jun-24 00:00:00.0000 TDB 
  -3.470257914178793E-03  5.105282823813397E-04 -1.712912878286509E-03
  -7.420145007291960E-04  3.895740499726800E-04  1.613837605871748E-03
2451724.500000000 = A.D. 2000-Jun-29 00:00:00.0000 TDB 
   1.228520866733469E-03  2.562169586990453E-04  3.691819195510719E-03
   1.683734756003147E-03 -4.409331025644870E-04 -5.333756900057179E-04
2451729.500000000 = A.D. 2000-Jul-04 00:00:00.0000 TDB 
   1.737064889124906E-03 -8.557112500939773E-04 -3.380499962267995E-03
  -1.584106208962740E-03  2.201505997320837E-04 -8.729574700933239E-04
2451734.500000000 = A.D. 2000-Jul-09 00:00:00.0000 TDB 
  -3.665777350330576E-03  9.340913068017713E-04  9.783803718396815E-04
   5.003948817414964E-04  1.379467752207790E-04  1.740880894994851E-03
2451739.500000000 = A.D. 2000-Jul-14 00:00:00.0000 TDB 
   3.295317588237980E-03 -4.276418609813213E-04  2.030080710353548E-03
   8.907965629038776E-04 -4.109066160496079E-04 -1.536441346705160E-03
2451744.500000000 = A.D. 2000-Jul-19 00:00:00.0000 TDB 
  -9.210463156358238E-04 -3.349642388867989E-04 -3.776658743072260E-03
  -1.726889058282036E-03  4.285011189378023E-04  3.794495901772521E-04
2451749.500000000 = A.D. 2000-Jul-24 00:00:00.0000 TDB 
  -2.061635235605845E-03  8.990117440332947E-04  3.188751868095049E-03
   1.498283024388701E-03 -1.813246883129057E-04  1.015580049041041E-03
